[{"OBJECT_NAME":"ONEWEB-0705","OBJECT_ID":"2024-188S","EPOCH":"2026-02-12T01:51:07.911360","MEAN_MOTION":13.10372976,"ECCENTRICITY":0.00030052,"INCLINATION":87.8761,"RA_OF_ASC_NODE":61.178,"ARG_OF_PERICENTER":90.5743,"MEAN_ANOMALY":269.5729,"EPHEMERIS_TYPE":0,"CLASSIFICATION_TYPE":"U","NORAD_CAT_ID":61610,"ELEMENT_SET_NO":999,"REV_AT_EPOCH":5907,"BSTAR":-0.0019901713,"MEAN_MOTION_DOT":-6.82e-6,"MEAN_MOTION_DDOT":0},{"OBJECT_NAME":"ONEWEB-0706","OBJECT_ID":"2024-188T","EPOCH":"2026-02-11T23:39:40.157280","MEAN_MOTION":13.10369543,"ECCENTRICITY":0.0002418,"INCLINATION":87.8752,"RA_OF_ASC_NODE":61.2109,"ARG_OF_PERICENTER":100.6132,"MEAN_ANOMALY":259.5268,"EPHEMERIS_TYPE":0,"CLASSIFICATION_TYPE":"U","NORAD_CAT_ID":61611,"ELEMENT_SET_NO":999,"REV_AT_EPOCH":6698,"BSTAR":-0.0011166,"MEAN_MOTION_DOT":-3.77e-6,"MEAN_MOTION_DDOT":0},{"OBJECT_NAME":"ONEWEB-0707","OBJECT_ID":"2024-188U","EPOCH":"2026-02-11T23:49:12.948672","MEAN_MOTION":13.10370312,"ECCENTRICITY":0.00023479,"INCLINATION":87.8765,"RA_OF_ASC_NODE":61.1938,"ARG_OF_PERICENTER":104.084,"MEAN_ANOMALY":256.0549,"EPHEMERIS_TYPE":0,"CLASSIFICATION_TYPE":"U","NORAD_CAT_ID":61612,"ELEMENT_SET_NO":999,"REV_AT_EPOCH":6692,"BSTAR":-0.0018007705,"MEAN_MOTION_DOT":-6.16e-6,"MEAN_MOTION_DDOT":0},{"OBJECT_NAME":"ONEWEB-0708","OBJECT_ID":"2024-188V","EPOCH":"2026-02-12T02:05:29.539680","MEAN_MOTION":13.1037528,"ECCENTRICITY":0.0002379,"INCLINATION":87.8755,"RA_OF_ASC_NODE":61.2053,"ARG_OF_PERICENTER":83.717,"MEAN_ANOMALY":276.4228,"EPHEMERIS_TYPE":0,"CLASSIFICATION_TYPE":"U","NORAD_CAT_ID":61613,"ELEMENT_SET_NO":999,"REV_AT_EPOCH":6691,"BSTAR":-0.00063338149,"MEAN_MOTION_DOT":-2.08e-6,"MEAN_MOTION_DDOT":0}]
